<?xml version="1.0" encoding="UTF-8"?>
<gpx version="1.1" creator="PedalaCast sim" xmlns="http://www.topografix.com/GPX/1/1"><trk><name>Percurso de exemplo</name><trkseg>
<trkpt lat="-22.899968" lon="-47.059941"><ele>600.0</ele></trkpt>
<trkpt lat="-22.899937" lon="-47.059882"><ele>600.0</ele></trkpt>
<trkpt lat="-22.899905" lon="-47.059823"><ele>600.0</ele></trkpt>
<trkpt lat="-22.899873" lon="-47.059764"><ele>600.0</ele></trkpt>
<trkpt lat="-22.899842" lon="-47.059704"><ele>600.0</ele></trkpt>
<trkpt lat="-22.899810" lon="-47.059645"><ele>600.0</ele></trkpt>
<trkpt lat="-22.899779" lon="-47.059586"><ele>600.0</ele></trkpt>
<trkpt lat="-22.899747" lon="-47.059527"><ele>600.0</ele></trkpt>
<trkpt lat="-22.899715" lon="-47.059468"><ele>600.0</ele></trkpt>
<trkpt lat="-22.899684" lon="-47.059409"><ele>600.0</ele></trkpt>
<trkpt lat="-22.899652" lon="-47.059349"><ele>600.0</ele></trkpt>
<trkpt lat="-22.899621" lon="-47.059290"><ele>600.0</ele></trkpt>
<trkpt lat="-22.899589" lon="-47.059231"><ele>600.0</ele></trkpt>
<trkpt lat="-22.899558" lon="-47.059172"><ele>600.0</ele></trkpt>
<trkpt lat="-22.899526" lon="-47.059112"><ele>600.0</ele></trkpt>
<trkpt lat="-22.899495" lon="-47.059053"><ele>600.0</ele></trkpt>
<trkpt lat="-22.899464" lon="-47.058994"><ele>600.0</ele></trkpt>
<trkpt lat="-22.899432" lon="-47.058934"><ele>600.0</ele></trkpt>
<trkpt lat="-22.899401" lon="-47.058875"><ele>600.0</ele></trkpt>
<trkpt lat="-22.899370" lon="-47.058816"><ele>600.0</ele></trkpt>
<trkpt lat="-22.899339" lon="-47.058756"><ele>600.0</ele></trkpt>
<trkpt lat="-22.899308" lon="-47.058697"><ele>600.0</ele></trkpt>
<trkpt lat="-22.899277" lon="-47.058637"><ele>600.0</ele></trkpt>
<trkpt lat="-22.899246" lon="-47.058578"><ele>600.0</ele></trkpt>
<trkpt lat="-22.899215" lon="-47.058518"><ele>600.0</ele></trkpt>
<trkpt lat="-22.899184" lon="-47.058458"><ele>600.0</ele></trkpt>
<trkpt lat="-22.899153" lon="-47.058399"><ele>600.0</ele></trkpt>
<trkpt lat="-22.899123" lon="-47.058339"><ele>600.0</ele></trkpt>
<trkpt lat="-22.899092" lon="-47.058279"><ele>600.0</ele></trkpt>
<trkpt lat="-22.899061" lon="-47.058220"><ele>600.0</ele></trkpt>
<trkpt lat="-22.899031" lon="-47.058160"><ele>600.0</ele></trkpt>
<trkpt lat="-22.899000" lon="-47.058100"><ele>600.0</ele></trkpt>
<trkpt lat="-22.898970" lon="-47.058040"><ele>600.0</ele></trkpt>
<trkpt lat="-22.898940" lon="-47.057980"><ele>600.0</ele></trkpt>
<trkpt lat="-22.898909" lon="-47.057920"><ele>600.0</ele></trkpt>
<trkpt lat="-22.898879" lon="-47.057860"><ele>600.0</ele></trkpt>
<trkpt lat="-22.898849" lon="-47.057800"><ele>600.0</ele></trkpt>
<trkpt lat="-22.898819" lon="-47.057740"><ele>600.0</ele></trkpt>
<trkpt lat="-22.898790" lon="-47.057680"><ele>600.0</ele></trkpt>
<trkpt lat="-22.898760" lon="-47.057619"><ele>600.0</ele></trkpt>
<trkpt lat="-22.898730" lon="-47.057559"><ele>600.0</ele></trkpt>
<trkpt lat="-22.898701" lon="-47.057499"><ele>600.0</ele></trkpt>
<trkpt lat="-22.898671" lon="-47.057438"><ele>600.0</ele></trkpt>
<trkpt lat="-22.898642" lon="-47.057378"><ele>600.0</ele></trkpt>
<trkpt lat="-22.898612" lon="-47.057317"><ele>600.0</ele></trkpt>
<trkpt lat="-22.898583" lon="-47.057257"><ele>600.0</ele></trkpt>
<trkpt lat="-22.898554" lon="-47.057196"><ele>600.0</ele></trkpt>
<trkpt lat="-22.898525" lon="-47.057135"><ele>600.0</ele></trkpt>
<trkpt lat="-22.898496" lon="-47.057075"><ele>600.0</ele></trkpt>
<trkpt lat="-22.898468" lon="-47.057014"><ele>600.0</ele></trkpt>
<trkpt lat="-22.898439" lon="-47.056953"><ele>600.0</ele></trkpt>
<trkpt lat="-22.898411" lon="-47.056892"><ele>600.0</ele></trkpt>
<trkpt lat="-22.898382" lon="-47.056831"><ele>600.0</ele></trkpt>
<trkpt lat="-22.898354" lon="-47.056770"><ele>600.0</ele></trkpt>
<trkpt lat="-22.898326" lon="-47.056709"><ele>600.0</ele></trkpt>
<trkpt lat="-22.898298" lon="-47.056647"><ele>600.0</ele></trkpt>
<trkpt lat="-22.898270" lon="-47.056586"><ele>600.0</ele></trkpt>
<trkpt lat="-22.898242" lon="-47.056525"><ele>600.0</ele></trkpt>
<trkpt lat="-22.898214" lon="-47.056463"><ele>600.0</ele></trkpt>
<trkpt lat="-22.898187" lon="-47.056402"><ele>600.0</ele></trkpt>
<trkpt lat="-22.898160" lon="-47.056340"><ele>600.0</ele></trkpt>
<trkpt lat="-22.898132" lon="-47.056279"><ele>600.0</ele></trkpt>
<trkpt lat="-22.898105" lon="-47.056217"><ele>600.0</ele></trkpt>
<trkpt lat="-22.898078" lon="-47.056155"><ele>600.0</ele></trkpt>
<trkpt lat="-22.898051" lon="-47.056094"><ele>600.0</ele></trkpt>
<trkpt lat="-22.898025" lon="-47.056032"><ele>600.0</ele></trkpt>
<trkpt lat="-22.897998" lon="-47.055970"><ele>600.0</ele></trkpt>
<trkpt lat="-22.897972" lon="-47.055908"><ele>600.0</ele></trkpt>
<trkpt lat="-22.897945" lon="-47.055846"><ele>600.0</ele></trkpt>
<trkpt lat="-22.897919" lon="-47.055783"><ele>600.0</ele></trkpt>
<trkpt lat="-22.897893" lon="-47.055721"><ele>600.0</ele></trkpt>
<trkpt lat="-22.897867" lon="-47.055659"><ele>600.0</ele></trkpt>
<trkpt lat="-22.897841" lon="-47.055596"><ele>600.0</ele></trkpt>
<trkpt lat="-22.897816" lon="-47.055534"><ele>600.0</ele></trkpt>
<trkpt lat="-22.897790" lon="-47.055472"><ele>600.0</ele></trkpt>
<trkpt lat="-22.897765" lon="-47.055409"><ele>600.0</ele></trkpt>
<trkpt lat="-22.897740" lon="-47.055346"><ele>600.0</ele></trkpt>
<trkpt lat="-22.897715" lon="-47.055284"><ele>600.0</ele></trkpt>
<trkpt lat="-22.897690" lon="-47.055221"><ele>600.0</ele></trkpt>
<trkpt lat="-22.897665" lon="-47.055158"><ele>600.0</ele></trkpt>
<trkpt lat="-22.897641" lon="-47.055095"><ele>600.0</ele></trkpt>
<trkpt lat="-22.897616" lon="-47.055032"><ele>600.0</ele></trkpt>
<trkpt lat="-22.897592" lon="-47.054969"><ele>600.0</ele></trkpt>
<trkpt lat="-22.897568" lon="-47.054906"><ele>600.0</ele></trkpt>
<trkpt lat="-22.897544" lon="-47.054843"><ele>600.0</ele></trkpt>
<trkpt lat="-22.897527" lon="-47.054797"><ele>600.2</ele></trkpt>
<trkpt lat="-22.897510" lon="-47.054752"><ele>600.4</ele></trkpt>
<trkpt lat="-22.897493" lon="-47.054707"><ele>600.6</ele></trkpt>
<trkpt lat="-22.897477" lon="-47.054662"><ele>600.8</ele></trkpt>
<trkpt lat="-22.897460" lon="-47.054616"><ele>601.0</ele></trkpt>
<trkpt lat="-22.897444" lon="-47.054571"><ele>601.2</ele></trkpt>
<trkpt lat="-22.897427" lon="-47.054525"><ele>601.4</ele></trkpt>
<trkpt lat="-22.897411" lon="-47.054480"><ele>601.6</ele></trkpt>
<trkpt lat="-22.897395" lon="-47.054434"><ele>601.8</ele></trkpt>
<trkpt lat="-22.897379" lon="-47.054389"><ele>602.0</ele></trkpt>
<trkpt lat="-22.897363" lon="-47.054343"><ele>602.2</ele></trkpt>
<trkpt lat="-22.897347" lon="-47.054297"><ele>602.4</ele></trkpt>
<trkpt lat="-22.897332" lon="-47.054252"><ele>602.6</ele></trkpt>
<trkpt lat="-22.897316" lon="-47.054206"><ele>602.8</ele></trkpt>
<trkpt lat="-22.897301" lon="-47.054160"><ele>603.0</ele></trkpt>
<trkpt lat="-22.897285" lon="-47.054114"><ele>603.2</ele></trkpt>
<trkpt lat="-22.897270" lon="-47.054068"><ele>603.4</ele></trkpt>
<trkpt lat="-22.897255" lon="-47.054022"><ele>603.6</ele></trkpt>
<trkpt lat="-22.897240" lon="-47.053976"><ele>603.8</ele></trkpt>
<trkpt lat="-22.897225" lon="-47.053930"><ele>604.0</ele></trkpt>
<trkpt lat="-22.897210" lon="-47.053884"><ele>604.2</ele></trkpt>
<trkpt lat="-22.897196" lon="-47.053838"><ele>604.4</ele></trkpt>
<trkpt lat="-22.897181" lon="-47.053792"><ele>604.6</ele></trkpt>
<trkpt lat="-22.897167" lon="-47.053746"><ele>604.8</ele></trkpt>
<trkpt lat="-22.897152" lon="-47.053699"><ele>605.0</ele></trkpt>
<trkpt lat="-22.897138" lon="-47.053653"><ele>605.2</ele></trkpt>
<trkpt lat="-22.897124" lon="-47.053607"><ele>605.4</ele></trkpt>
<trkpt lat="-22.897110" lon="-47.053560"><ele>605.6</ele></trkpt>
<trkpt lat="-22.897096" lon="-47.053514"><ele>605.8</ele></trkpt>
<trkpt lat="-22.897082" lon="-47.053468"><ele>606.0</ele></trkpt>
<trkpt lat="-22.897069" lon="-47.053421"><ele>606.2</ele></trkpt>
<trkpt lat="-22.897055" lon="-47.053375"><ele>606.4</ele></trkpt>
<trkpt lat="-22.897042" lon="-47.053328"><ele>606.6</ele></trkpt>
<trkpt lat="-22.897028" lon="-47.053282"><ele>606.8</ele></trkpt>
<trkpt lat="-22.897015" lon="-47.053235"><ele>607.0</ele></trkpt>
<trkpt lat="-22.897002" lon="-47.053188"><ele>607.2</ele></trkpt>
<trkpt lat="-22.896989" lon="-47.053142"><ele>607.4</ele></trkpt>
<trkpt lat="-22.896976" lon="-47.053095"><ele>607.6</ele></trkpt>
<trkpt lat="-22.896963" lon="-47.053048"><ele>607.8</ele></trkpt>
<trkpt lat="-22.896950" lon="-47.053001"><ele>608.0</ele></trkpt>
<trkpt lat="-22.896938" lon="-47.052955"><ele>608.2</ele></trkpt>
<trkpt lat="-22.896925" lon="-47.052908"><ele>608.4</ele></trkpt>
<trkpt lat="-22.896913" lon="-47.052861"><ele>608.6</ele></trkpt>
<trkpt lat="-22.896900" lon="-47.052814"><ele>608.8</ele></trkpt>
<trkpt lat="-22.896888" lon="-47.052767"><ele>609.0</ele></trkpt>
<trkpt lat="-22.896876" lon="-47.052720"><ele>609.2</ele></trkpt>
<trkpt lat="-22.896864" lon="-47.052673"><ele>609.4</ele></trkpt>
<trkpt lat="-22.896852" lon="-47.052626"><ele>609.6</ele></trkpt>
<trkpt lat="-22.896840" lon="-47.052579"><ele>609.8</ele></trkpt>
<trkpt lat="-22.896828" lon="-47.052532"><ele>610.0</ele></trkpt>
<trkpt lat="-22.896817" lon="-47.052485"><ele>610.2</ele></trkpt>
<trkpt lat="-22.896805" lon="-47.052438"><ele>610.4</ele></trkpt>
<trkpt lat="-22.896794" lon="-47.052390"><ele>610.6</ele></trkpt>
<trkpt lat="-22.896783" lon="-47.052343"><ele>610.8</ele></trkpt>
<trkpt lat="-22.896771" lon="-47.052296"><ele>611.0</ele></trkpt>
<trkpt lat="-22.896760" lon="-47.052249"><ele>611.2</ele></trkpt>
<trkpt lat="-22.896749" lon="-47.052201"><ele>611.4</ele></trkpt>
<trkpt lat="-22.896738" lon="-47.052154"><ele>611.6</ele></trkpt>
<trkpt lat="-22.896727" lon="-47.052107"><ele>611.8</ele></trkpt>
<trkpt lat="-22.896716" lon="-47.052059"><ele>612.0</ele></trkpt>
<trkpt lat="-22.896706" lon="-47.052012"><ele>612.2</ele></trkpt>
<trkpt lat="-22.896695" lon="-47.051965"><ele>612.4</ele></trkpt>
<trkpt lat="-22.896685" lon="-47.051917"><ele>612.6</ele></trkpt>
<trkpt lat="-22.896674" lon="-47.051870"><ele>612.8</ele></trkpt>
<trkpt lat="-22.896664" lon="-47.051822"><ele>613.0</ele></trkpt>
<trkpt lat="-22.896654" lon="-47.051775"><ele>613.2</ele></trkpt>
<trkpt lat="-22.896644" lon="-47.051727"><ele>613.4</ele></trkpt>
<trkpt lat="-22.896633" lon="-47.051680"><ele>613.6</ele></trkpt>
<trkpt lat="-22.896623" lon="-47.051632"><ele>613.8</ele></trkpt>
<trkpt lat="-22.896614" lon="-47.051585"><ele>614.0</ele></trkpt>
<trkpt lat="-22.896604" lon="-47.051537"><ele>614.2</ele></trkpt>
<trkpt lat="-22.896594" lon="-47.051489"><ele>614.4</ele></trkpt>
<trkpt lat="-22.896584" lon="-47.051442"><ele>614.6</ele></trkpt>
<trkpt lat="-22.896575" lon="-47.051394"><ele>614.8</ele></trkpt>
<trkpt lat="-22.896565" lon="-47.051346"><ele>615.0</ele></trkpt>
<trkpt lat="-22.896556" lon="-47.051299"><ele>615.2</ele></trkpt>
<trkpt lat="-22.896546" lon="-47.051251"><ele>615.4</ele></trkpt>
<trkpt lat="-22.896537" lon="-47.051203"><ele>615.6</ele></trkpt>
<trkpt lat="-22.896528" lon="-47.051156"><ele>615.8</ele></trkpt>
<trkpt lat="-22.896519" lon="-47.051108"><ele>616.0</ele></trkpt>
<trkpt lat="-22.896510" lon="-47.051060"><ele>616.2</ele></trkpt>
<trkpt lat="-22.896501" lon="-47.051012"><ele>616.4</ele></trkpt>
<trkpt lat="-22.896492" lon="-47.050965"><ele>616.6</ele></trkpt>
<trkpt lat="-22.896483" lon="-47.050917"><ele>616.8</ele></trkpt>
<trkpt lat="-22.896474" lon="-47.050869"><ele>617.0</ele></trkpt>
<trkpt lat="-22.896465" lon="-47.050821"><ele>617.2</ele></trkpt>
<trkpt lat="-22.896457" lon="-47.050773"><ele>617.4</ele></trkpt>
<trkpt lat="-22.896448" lon="-47.050725"><ele>617.6</ele></trkpt>
<trkpt lat="-22.896439" lon="-47.050677"><ele>617.8</ele></trkpt>
<trkpt lat="-22.896431" lon="-47.050630"><ele>618.0</ele></trkpt>
<trkpt lat="-22.896423" lon="-47.050582"><ele>618.2</ele></trkpt>
<trkpt lat="-22.896414" lon="-47.050534"><ele>618.4</ele></trkpt>
<trkpt lat="-22.896406" lon="-47.050486"><ele>618.6</ele></trkpt>
<trkpt lat="-22.896398" lon="-47.050438"><ele>618.8</ele></trkpt>
<trkpt lat="-22.896389" lon="-47.050390"><ele>619.0</ele></trkpt>
<trkpt lat="-22.896381" lon="-47.050342"><ele>619.2</ele></trkpt>
<trkpt lat="-22.896373" lon="-47.050294"><ele>619.4</ele></trkpt>
<trkpt lat="-22.896365" lon="-47.050246"><ele>619.6</ele></trkpt>
<trkpt lat="-22.896357" lon="-47.050198"><ele>619.8</ele></trkpt>
<trkpt lat="-22.896349" lon="-47.050150"><ele>620.0</ele></trkpt>
<trkpt lat="-22.896341" lon="-47.050102"><ele>620.2</ele></trkpt>
<trkpt lat="-22.896333" lon="-47.050054"><ele>620.4</ele></trkpt>
<trkpt lat="-22.896325" lon="-47.050006"><ele>620.6</ele></trkpt>
<trkpt lat="-22.896318" lon="-47.049958"><ele>620.8</ele></trkpt>
<trkpt lat="-22.896310" lon="-47.049910"><ele>621.0</ele></trkpt>
<trkpt lat="-22.896302" lon="-47.049862"><ele>621.2</ele></trkpt>
<trkpt lat="-22.896295" lon="-47.049814"><ele>621.4</ele></trkpt>
<trkpt lat="-22.896287" lon="-47.049766"><ele>621.6</ele></trkpt>
<trkpt lat="-22.896279" lon="-47.049718"><ele>621.8</ele></trkpt>
<trkpt lat="-22.896272" lon="-47.049670"><ele>622.0</ele></trkpt>
<trkpt lat="-22.896264" lon="-47.049622"><ele>622.2</ele></trkpt>
<trkpt lat="-22.896257" lon="-47.049574"><ele>622.4</ele></trkpt>
<trkpt lat="-22.896249" lon="-47.049525"><ele>622.6</ele></trkpt>
<trkpt lat="-22.896242" lon="-47.049477"><ele>622.8</ele></trkpt>
<trkpt lat="-22.896234" lon="-47.049429"><ele>623.0</ele></trkpt>
<trkpt lat="-22.896227" lon="-47.049381"><ele>623.2</ele></trkpt>
<trkpt lat="-22.896220" lon="-47.049333"><ele>623.4</ele></trkpt>
<trkpt lat="-22.896212" lon="-47.049285"><ele>623.6</ele></trkpt>
<trkpt lat="-22.896205" lon="-47.049237"><ele>623.8</ele></trkpt>
<trkpt lat="-22.896198" lon="-47.049189"><ele>624.0</ele></trkpt>
<trkpt lat="-22.896190" lon="-47.049141"><ele>624.2</ele></trkpt>
<trkpt lat="-22.896183" lon="-47.049092"><ele>624.4</ele></trkpt>
<trkpt lat="-22.896176" lon="-47.049044"><ele>624.6</ele></trkpt>
<trkpt lat="-22.896169" lon="-47.048996"><ele>624.8</ele></trkpt>
<trkpt lat="-22.896161" lon="-47.048948"><ele>625.0</ele></trkpt>
<trkpt lat="-22.896154" lon="-47.048900"><ele>625.2</ele></trkpt>
<trkpt lat="-22.896147" lon="-47.048852"><ele>625.4</ele></trkpt>
<trkpt lat="-22.896140" lon="-47.048804"><ele>625.6</ele></trkpt>
<trkpt lat="-22.896132" lon="-47.048756"><ele>625.8</ele></trkpt>
<trkpt lat="-22.896125" lon="-47.048707"><ele>626.0</ele></trkpt>
<trkpt lat="-22.896118" lon="-47.048659"><ele>626.2</ele></trkpt>
<trkpt lat="-22.896111" lon="-47.048611"><ele>626.4</ele></trkpt>
<trkpt lat="-22.896104" lon="-47.048563"><ele>626.6</ele></trkpt>
<trkpt lat="-22.896097" lon="-47.048515"><ele>626.8</ele></trkpt>
<trkpt lat="-22.896089" lon="-47.048467"><ele>627.0</ele></trkpt>
<trkpt lat="-22.896082" lon="-47.048419"><ele>627.2</ele></trkpt>
<trkpt lat="-22.896075" lon="-47.048370"><ele>627.4</ele></trkpt>
<trkpt lat="-22.896068" lon="-47.048322"><ele>627.6</ele></trkpt>
<trkpt lat="-22.896061" lon="-47.048274"><ele>627.8</ele></trkpt>
<trkpt lat="-22.896053" lon="-47.048226"><ele>628.0</ele></trkpt>
<trkpt lat="-22.896046" lon="-47.048178"><ele>628.2</ele></trkpt>
<trkpt lat="-22.896039" lon="-47.048130"><ele>628.4</ele></trkpt>
<trkpt lat="-22.896032" lon="-47.048082"><ele>628.6</ele></trkpt>
<trkpt lat="-22.896024" lon="-47.048034"><ele>628.8</ele></trkpt>
<trkpt lat="-22.896017" lon="-47.047985"><ele>629.0</ele></trkpt>
<trkpt lat="-22.896010" lon="-47.047937"><ele>629.2</ele></trkpt>
<trkpt lat="-22.896002" lon="-47.047889"><ele>629.4</ele></trkpt>
<trkpt lat="-22.895995" lon="-47.047841"><ele>629.6</ele></trkpt>
<trkpt lat="-22.895988" lon="-47.047793"><ele>629.8</ele></trkpt>
<trkpt lat="-22.895980" lon="-47.047745"><ele>630.0</ele></trkpt>
<trkpt lat="-22.895973" lon="-47.047697"><ele>630.2</ele></trkpt>
<trkpt lat="-22.895965" lon="-47.047649"><ele>630.4</ele></trkpt>
<trkpt lat="-22.895958" lon="-47.047601"><ele>630.6</ele></trkpt>
<trkpt lat="-22.895950" lon="-47.047553"><ele>630.8</ele></trkpt>
<trkpt lat="-22.895943" lon="-47.047504"><ele>631.0</ele></trkpt>
<trkpt lat="-22.895935" lon="-47.047456"><ele>631.2</ele></trkpt>
<trkpt lat="-22.895928" lon="-47.047408"><ele>631.4</ele></trkpt>
<trkpt lat="-22.895920" lon="-47.047360"><ele>631.6</ele></trkpt>
<trkpt lat="-22.895912" lon="-47.047312"><ele>631.8</ele></trkpt>
<trkpt lat="-22.895905" lon="-47.047264"><ele>632.0</ele></trkpt>
<trkpt lat="-22.895897" lon="-47.047216"><ele>632.2</ele></trkpt>
<trkpt lat="-22.895889" lon="-47.047168"><ele>632.4</ele></trkpt>
<trkpt lat="-22.895881" lon="-47.047120"><ele>632.6</ele></trkpt>
<trkpt lat="-22.895873" lon="-47.047072"><ele>632.8</ele></trkpt>
<trkpt lat="-22.895865" lon="-47.047024"><ele>633.0</ele></trkpt>
<trkpt lat="-22.895857" lon="-47.046976"><ele>633.2</ele></trkpt>
<trkpt lat="-22.895849" lon="-47.046928"><ele>633.4</ele></trkpt>
<trkpt lat="-22.895841" lon="-47.046880"><ele>633.6</ele></trkpt>
<trkpt lat="-22.895833" lon="-47.046832"><ele>633.8</ele></trkpt>
<trkpt lat="-22.895825" lon="-47.046784"><ele>634.0</ele></trkpt>
<trkpt lat="-22.895817" lon="-47.046736"><ele>634.2</ele></trkpt>
<trkpt lat="-22.895808" lon="-47.046688"><ele>634.4</ele></trkpt>
<trkpt lat="-22.895800" lon="-47.046640"><ele>634.6</ele></trkpt>
<trkpt lat="-22.895792" lon="-47.046593"><ele>634.8</ele></trkpt>
<trkpt lat="-22.895783" lon="-47.046545"><ele>635.0</ele></trkpt>
<trkpt lat="-22.895775" lon="-47.046497"><ele>635.2</ele></trkpt>
<trkpt lat="-22.895766" lon="-47.046449"><ele>635.4</ele></trkpt>
<trkpt lat="-22.895757" lon="-47.046401"><ele>635.6</ele></trkpt>
<trkpt lat="-22.895749" lon="-47.046353"><ele>635.8</ele></trkpt>
<trkpt lat="-22.895740" lon="-47.046305"><ele>636.0</ele></trkpt>
<trkpt lat="-22.895733" lon="-47.046269"><ele>636.3</ele></trkpt>
<trkpt lat="-22.895727" lon="-47.046233"><ele>636.6</ele></trkpt>
<trkpt lat="-22.895720" lon="-47.046196"><ele>636.9</ele></trkpt>
<trkpt lat="-22.895713" lon="-47.046160"><ele>637.2</ele></trkpt>
<trkpt lat="-22.895706" lon="-47.046124"><ele>637.5</ele></trkpt>
<trkpt lat="-22.895699" lon="-47.046087"><ele>637.8</ele></trkpt>
<trkpt lat="-22.895692" lon="-47.046051"><ele>638.1</ele></trkpt>
<trkpt lat="-22.895685" lon="-47.046015"><ele>638.4</ele></trkpt>
<trkpt lat="-22.895678" lon="-47.045979"><ele>638.7</ele></trkpt>
<trkpt lat="-22.895671" lon="-47.045942"><ele>639.0</ele></trkpt>
<trkpt lat="-22.895663" lon="-47.045906"><ele>639.3</ele></trkpt>
<trkpt lat="-22.895656" lon="-47.045870"><ele>639.6</ele></trkpt>
<trkpt lat="-22.895649" lon="-47.045834"><ele>640.0</ele></trkpt>
<trkpt lat="-22.895641" lon="-47.045798"><ele>640.3</ele></trkpt>
<trkpt lat="-22.895634" lon="-47.045761"><ele>640.6</ele></trkpt>
<trkpt lat="-22.895626" lon="-47.045725"><ele>640.9</ele></trkpt>
<trkpt lat="-22.895619" lon="-47.045689"><ele>641.2</ele></trkpt>
<trkpt lat="-22.895611" lon="-47.045653"><ele>641.5</ele></trkpt>
<trkpt lat="-22.895603" lon="-47.045617"><ele>641.8</ele></trkpt>
<trkpt lat="-22.895596" lon="-47.045581"><ele>642.1</ele></trkpt>
<trkpt lat="-22.895588" lon="-47.045545"><ele>642.4</ele></trkpt>
<trkpt lat="-22.895580" lon="-47.045509"><ele>642.7</ele></trkpt>
<trkpt lat="-22.895572" lon="-47.045473"><ele>643.0</ele></trkpt>
<trkpt lat="-22.895564" lon="-47.045437"><ele>643.3</ele></trkpt>
<trkpt lat="-22.895556" lon="-47.045401"><ele>643.6</ele></trkpt>
<trkpt lat="-22.895548" lon="-47.045365"><ele>643.9</ele></trkpt>
<trkpt lat="-22.895539" lon="-47.045329"><ele>644.2</ele></trkpt>
<trkpt lat="-22.895531" lon="-47.045293"><ele>644.5</ele></trkpt>
<trkpt lat="-22.895523" lon="-47.045257"><ele>644.8</ele></trkpt>
<trkpt lat="-22.895514" lon="-47.045221"><ele>645.1</ele></trkpt>
<trkpt lat="-22.895506" lon="-47.045185"><ele>645.4</ele></trkpt>
<trkpt lat="-22.895497" lon="-47.045149"><ele>645.7</ele></trkpt>
<trkpt lat="-22.895489" lon="-47.045113"><ele>646.0</ele></trkpt>
<trkpt lat="-22.895480" lon="-47.045077"><ele>646.3</ele></trkpt>
<trkpt lat="-22.895471" lon="-47.045041"><ele>646.6</ele></trkpt>
<trkpt lat="-22.895462" lon="-47.045006"><ele>646.9</ele></trkpt>
<trkpt lat="-22.895453" lon="-47.044970"><ele>647.2</ele></trkpt>
<trkpt lat="-22.895445" lon="-47.044934"><ele>647.6</ele></trkpt>
<trkpt lat="-22.895435" lon="-47.044898"><ele>647.9</ele></trkpt>
<trkpt lat="-22.895426" lon="-47.044863"><ele>648.2</ele></trkpt>
<trkpt lat="-22.895417" lon="-47.044827"><ele>648.5</ele></trkpt>
<trkpt lat="-22.895408" lon="-47.044791"><ele>648.8</ele></trkpt>
<trkpt lat="-22.895399" lon="-47.044756"><ele>649.1</ele></trkpt>
<trkpt lat="-22.895389" lon="-47.044720"><ele>649.4</ele></trkpt>
<trkpt lat="-22.895380" lon="-47.044684"><ele>649.7</ele></trkpt>
<trkpt lat="-22.895370" lon="-47.044649"><ele>650.0</ele></trkpt>
<trkpt lat="-22.895361" lon="-47.044613"><ele>650.3</ele></trkpt>
<trkpt lat="-22.895351" lon="-47.044578"><ele>650.6</ele></trkpt>
<trkpt lat="-22.895341" lon="-47.044542"><ele>650.9</ele></trkpt>
<trkpt lat="-22.895331" lon="-47.044506"><ele>651.2</ele></trkpt>
<trkpt lat="-22.895321" lon="-47.044471"><ele>651.5</ele></trkpt>
<trkpt lat="-22.895311" lon="-47.044436"><ele>651.8</ele></trkpt>
<trkpt lat="-22.895301" lon="-47.044400"><ele>652.1</ele></trkpt>
<trkpt lat="-22.895291" lon="-47.044365"><ele>652.4</ele></trkpt>
<trkpt lat="-22.895281" lon="-47.044329"><ele>652.7</ele></trkpt>
<trkpt lat="-22.895271" lon="-47.044294"><ele>653.0</ele></trkpt>
<trkpt lat="-22.895260" lon="-47.044259"><ele>653.3</ele></trkpt>
<trkpt lat="-22.895250" lon="-47.044223"><ele>653.6</ele></trkpt>
<trkpt lat="-22.895239" lon="-47.044188"><ele>653.9</ele></trkpt>
<trkpt lat="-22.895229" lon="-47.044153"><ele>654.2</ele></trkpt>
<trkpt lat="-22.895218" lon="-47.044118"><ele>654.5</ele></trkpt>
<trkpt lat="-22.895207" lon="-47.044082"><ele>654.8</ele></trkpt>
<trkpt lat="-22.895196" lon="-47.044047"><ele>655.2</ele></trkpt>
<trkpt lat="-22.895185" lon="-47.044012"><ele>655.5</ele></trkpt>
<trkpt lat="-22.895174" lon="-47.043977"><ele>655.8</ele></trkpt>
<trkpt lat="-22.895163" lon="-47.043942"><ele>656.1</ele></trkpt>
<trkpt lat="-22.895152" lon="-47.043907"><ele>656.4</ele></trkpt>
<trkpt lat="-22.895141" lon="-47.043872"><ele>656.7</ele></trkpt>
<trkpt lat="-22.895129" lon="-47.043837"><ele>657.0</ele></trkpt>
<trkpt lat="-22.895118" lon="-47.043802"><ele>657.3</ele></trkpt>
<trkpt lat="-22.895107" lon="-47.043767"><ele>657.6</ele></trkpt>
<trkpt lat="-22.895095" lon="-47.043732"><ele>657.9</ele></trkpt>
<trkpt lat="-22.895083" lon="-47.043697"><ele>658.2</ele></trkpt>
<trkpt lat="-22.895072" lon="-47.043663"><ele>658.5</ele></trkpt>
<trkpt lat="-22.895060" lon="-47.043628"><ele>658.8</ele></trkpt>
<trkpt lat="-22.895048" lon="-47.043593"><ele>659.1</ele></trkpt>
<trkpt lat="-22.895036" lon="-47.043558"><ele>659.4</ele></trkpt>
<trkpt lat="-22.895024" lon="-47.043524"><ele>659.7</ele></trkpt>
<trkpt lat="-22.895012" lon="-47.043489"><ele>660.0</ele></trkpt>
<trkpt lat="-22.894999" lon="-47.043454"><ele>660.3</ele></trkpt>
<trkpt lat="-22.894987" lon="-47.043420"><ele>660.6</ele></trkpt>
<trkpt lat="-22.894975" lon="-47.043385"><ele>660.9</ele></trkpt>
<trkpt lat="-22.894962" lon="-47.043351"><ele>661.2</ele></trkpt>
<trkpt lat="-22.894950" lon="-47.043316"><ele>661.5</ele></trkpt>
<trkpt lat="-22.894937" lon="-47.043282"><ele>661.8</ele></trkpt>
<trkpt lat="-22.894924" lon="-47.043247"><ele>662.1</ele></trkpt>
<trkpt lat="-22.894911" lon="-47.043213"><ele>662.4</ele></trkpt>
<trkpt lat="-22.894899" lon="-47.043178"><ele>662.8</ele></trkpt>
<trkpt lat="-22.894886" lon="-47.043144"><ele>663.1</ele></trkpt>
<trkpt lat="-22.894873" lon="-47.043110"><ele>663.4</ele></trkpt>
<trkpt lat="-22.894859" lon="-47.043076"><ele>663.7</ele></trkpt>
<trkpt lat="-22.894846" lon="-47.043041"><ele>664.0</ele></trkpt>
<trkpt lat="-22.894833" lon="-47.043007"><ele>664.3</ele></trkpt>
<trkpt lat="-22.894820" lon="-47.042973"><ele>664.6</ele></trkpt>
<trkpt lat="-22.894806" lon="-47.042939"><ele>664.9</ele></trkpt>
<trkpt lat="-22.894793" lon="-47.042905"><ele>665.2</ele></trkpt>
<trkpt lat="-22.894779" lon="-47.042871"><ele>665.5</ele></trkpt>
<trkpt lat="-22.894765" lon="-47.042837"><ele>665.8</ele></trkpt>
<trkpt lat="-22.894751" lon="-47.042803"><ele>666.1</ele></trkpt>
<trkpt lat="-22.894737" lon="-47.042769"><ele>666.4</ele></trkpt>
<trkpt lat="-22.894724" lon="-47.042735"><ele>666.7</ele></trkpt>
<trkpt lat="-22.894709" lon="-47.042701"><ele>667.0</ele></trkpt>
<trkpt lat="-22.894695" lon="-47.042668"><ele>667.3</ele></trkpt>
<trkpt lat="-22.894681" lon="-47.042634"><ele>667.6</ele></trkpt>
<trkpt lat="-22.894667" lon="-47.042600"><ele>667.9</ele></trkpt>
<trkpt lat="-22.894652" lon="-47.042567"><ele>668.2</ele></trkpt>
<trkpt lat="-22.894638" lon="-47.042533"><ele>668.5</ele></trkpt>
<trkpt lat="-22.894623" lon="-47.042499"><ele>668.8</ele></trkpt>
<trkpt lat="-22.894609" lon="-47.042466"><ele>669.1</ele></trkpt>
<trkpt lat="-22.894594" lon="-47.042432"><ele>669.4</ele></trkpt>
<trkpt lat="-22.894579" lon="-47.042399"><ele>669.7</ele></trkpt>
<trkpt lat="-22.894565" lon="-47.042365"><ele>670.0</ele></trkpt>
<trkpt lat="-22.894550" lon="-47.042332"><ele>670.4</ele></trkpt>
<trkpt lat="-22.894535" lon="-47.042299"><ele>670.7</ele></trkpt>
<trkpt lat="-22.894519" lon="-47.042265"><ele>671.0</ele></trkpt>
<trkpt lat="-22.894504" lon="-47.042232"><ele>671.3</ele></trkpt>
<trkpt lat="-22.894489" lon="-47.042199"><ele>671.6</ele></trkpt>
<trkpt lat="-22.894474" lon="-47.042166"><ele>671.9</ele></trkpt>
<trkpt lat="-22.894458" lon="-47.042133"><ele>672.2</ele></trkpt>
<trkpt lat="-22.894443" lon="-47.042100"><ele>672.5</ele></trkpt>
<trkpt lat="-22.894427" lon="-47.042067"><ele>672.8</ele></trkpt>
<trkpt lat="-22.894412" lon="-47.042034"><ele>673.1</ele></trkpt>
<trkpt lat="-22.894396" lon="-47.042001"><ele>673.4</ele></trkpt>
<trkpt lat="-22.894380" lon="-47.041968"><ele>673.7</ele></trkpt>
<trkpt lat="-22.894364" lon="-47.041935"><ele>674.0</ele></trkpt>
<trkpt lat="-22.894348" lon="-47.041902"><ele>674.3</ele></trkpt>
<trkpt lat="-22.894332" lon="-47.041869"><ele>674.6</ele></trkpt>
<trkpt lat="-22.894316" lon="-47.041837"><ele>674.9</ele></trkpt>
<trkpt lat="-22.894300" lon="-47.041804"><ele>675.2</ele></trkpt>
<trkpt lat="-22.894283" lon="-47.041771"><ele>675.5</ele></trkpt>
<trkpt lat="-22.894267" lon="-47.041739"><ele>675.8</ele></trkpt>
<trkpt lat="-22.894251" lon="-47.041706"><ele>676.1</ele></trkpt>
<trkpt lat="-22.894234" lon="-47.041674"><ele>676.4</ele></trkpt>
<trkpt lat="-22.894218" lon="-47.041641"><ele>676.7</ele></trkpt>
<trkpt lat="-22.894201" lon="-47.041609"><ele>677.0</ele></trkpt>
<trkpt lat="-22.894184" lon="-47.041576"><ele>677.3</ele></trkpt>
<trkpt lat="-22.894167" lon="-47.041544"><ele>677.6</ele></trkpt>
<trkpt lat="-22.894150" lon="-47.041512"><ele>678.0</ele></trkpt>
<trkpt lat="-22.894134" lon="-47.041480"><ele>678.3</ele></trkpt>
<trkpt lat="-22.894116" lon="-47.041447"><ele>678.6</ele></trkpt>
<trkpt lat="-22.894099" lon="-47.041415"><ele>678.9</ele></trkpt>
<trkpt lat="-22.894082" lon="-47.041383"><ele>679.2</ele></trkpt>
<trkpt lat="-22.894065" lon="-47.041351"><ele>679.5</ele></trkpt>
<trkpt lat="-22.894048" lon="-47.041319"><ele>679.8</ele></trkpt>
<trkpt lat="-22.894030" lon="-47.041287"><ele>680.1</ele></trkpt>
<trkpt lat="-22.894013" lon="-47.041255"><ele>680.4</ele></trkpt>
<trkpt lat="-22.893995" lon="-47.041223"><ele>680.7</ele></trkpt>
<trkpt lat="-22.893978" lon="-47.041192"><ele>681.0</ele></trkpt>
<trkpt lat="-22.893960" lon="-47.041160"><ele>681.3</ele></trkpt>
<trkpt lat="-22.893942" lon="-47.041128"><ele>681.6</ele></trkpt>
<trkpt lat="-22.893924" lon="-47.041096"><ele>681.9</ele></trkpt>
<trkpt lat="-22.893907" lon="-47.041065"><ele>682.2</ele></trkpt>
<trkpt lat="-22.893889" lon="-47.041033"><ele>682.5</ele></trkpt>
<trkpt lat="-22.893871" lon="-47.041002"><ele>682.8</ele></trkpt>
<trkpt lat="-22.893852" lon="-47.040970"><ele>683.1</ele></trkpt>
<trkpt lat="-22.893834" lon="-47.040939"><ele>683.4</ele></trkpt>
<trkpt lat="-22.893816" lon="-47.040907"><ele>683.7</ele></trkpt>
<trkpt lat="-22.893798" lon="-47.040876"><ele>684.0</ele></trkpt>
<trkpt lat="-22.893779" lon="-47.040844"><ele>684.3</ele></trkpt>
<trkpt lat="-22.893761" lon="-47.040813"><ele>684.6</ele></trkpt>
<trkpt lat="-22.893743" lon="-47.040782"><ele>684.9</ele></trkpt>
<trkpt lat="-22.893724" lon="-47.040751"><ele>685.2</ele></trkpt>
<trkpt lat="-22.893705" lon="-47.040720"><ele>685.6</ele></trkpt>
<trkpt lat="-22.893687" lon="-47.040688"><ele>685.9</ele></trkpt>
<trkpt lat="-22.893668" lon="-47.040657"><ele>686.2</ele></trkpt>
<trkpt lat="-22.893649" lon="-47.040626"><ele>686.5</ele></trkpt>
<trkpt lat="-22.893630" lon="-47.040595"><ele>686.8</ele></trkpt>
<trkpt lat="-22.893611" lon="-47.040564"><ele>687.1</ele></trkpt>
<trkpt lat="-22.893592" lon="-47.040534"><ele>687.4</ele></trkpt>
<trkpt lat="-22.893573" lon="-47.040503"><ele>687.7</ele></trkpt>
<trkpt lat="-22.893554" lon="-47.040472"><ele>688.0</ele></trkpt>
<trkpt lat="-22.893535" lon="-47.040441"><ele>688.3</ele></trkpt>
<trkpt lat="-22.893516" lon="-47.040410"><ele>688.6</ele></trkpt>
<trkpt lat="-22.893496" lon="-47.040380"><ele>688.9</ele></trkpt>
<trkpt lat="-22.893477" lon="-47.040349"><ele>689.2</ele></trkpt>
<trkpt lat="-22.893458" lon="-47.040319"><ele>689.5</ele></trkpt>
<trkpt lat="-22.893438" lon="-47.040288"><ele>689.8</ele></trkpt>
<trkpt lat="-22.893419" lon="-47.040257"><ele>690.1</ele></trkpt>
<trkpt lat="-22.893399" lon="-47.040227"><ele>690.4</ele></trkpt>
<trkpt lat="-22.893380" lon="-47.040197"><ele>690.7</ele></trkpt>
<trkpt lat="-22.893360" lon="-47.040166"><ele>691.0</ele></trkpt>
<trkpt lat="-22.893340" lon="-47.040136"><ele>691.3</ele></trkpt>
<trkpt lat="-22.893320" lon="-47.040106"><ele>691.6</ele></trkpt>
<trkpt lat="-22.893301" lon="-47.040075"><ele>691.9</ele></trkpt>
<trkpt lat="-22.893281" lon="-47.040045"><ele>692.2</ele></trkpt>
<trkpt lat="-22.893261" lon="-47.040015"><ele>692.5</ele></trkpt>
<trkpt lat="-22.893241" lon="-47.039985"><ele>692.8</ele></trkpt>
<trkpt lat="-22.893221" lon="-47.039955"><ele>693.2</ele></trkpt>
<trkpt lat="-22.893201" lon="-47.039925"><ele>693.5</ele></trkpt>
<trkpt lat="-22.893180" lon="-47.039895"><ele>693.8</ele></trkpt>
<trkpt lat="-22.893160" lon="-47.039865"><ele>694.1</ele></trkpt>
<trkpt lat="-22.893140" lon="-47.039835"><ele>694.4</ele></trkpt>
<trkpt lat="-22.893120" lon="-47.039805"><ele>694.7</ele></trkpt>
<trkpt lat="-22.893099" lon="-47.039775"><ele>695.0</ele></trkpt>
<trkpt lat="-22.893079" lon="-47.039745"><ele>695.3</ele></trkpt>
<trkpt lat="-22.893058" lon="-47.039715"><ele>695.6</ele></trkpt>
<trkpt lat="-22.893038" lon="-47.039685"><ele>695.9</ele></trkpt>
<trkpt lat="-22.893017" lon="-47.039656"><ele>696.2</ele></trkpt>
<trkpt lat="-22.892997" lon="-47.039626"><ele>696.5</ele></trkpt>
<trkpt lat="-22.892976" lon="-47.039596"><ele>696.8</ele></trkpt>
<trkpt lat="-22.892956" lon="-47.039567"><ele>697.1</ele></trkpt>
<trkpt lat="-22.892935" lon="-47.039537"><ele>697.4</ele></trkpt>
<trkpt lat="-22.892914" lon="-47.039508"><ele>697.7</ele></trkpt>
<trkpt lat="-22.892893" lon="-47.039478"><ele>698.0</ele></trkpt>
<trkpt lat="-22.892873" lon="-47.039449"><ele>698.3</ele></trkpt>
<trkpt lat="-22.892852" lon="-47.039419"><ele>698.6</ele></trkpt>
<trkpt lat="-22.892831" lon="-47.039390"><ele>698.9</ele></trkpt>
<trkpt lat="-22.892810" lon="-47.039360"><ele>699.2</ele></trkpt>
<trkpt lat="-22.892789" lon="-47.039331"><ele>699.5</ele></trkpt>
<trkpt lat="-22.892768" lon="-47.039302"><ele>699.8</ele></trkpt>
<trkpt lat="-22.892747" lon="-47.039272"><ele>700.1</ele></trkpt>
<trkpt lat="-22.892726" lon="-47.039243"><ele>700.4</ele></trkpt>
<trkpt lat="-22.892705" lon="-47.039214"><ele>700.8</ele></trkpt>
<trkpt lat="-22.892683" lon="-47.039185"><ele>701.1</ele></trkpt>
<trkpt lat="-22.892662" lon="-47.039156"><ele>701.4</ele></trkpt>
<trkpt lat="-22.892641" lon="-47.039126"><ele>701.7</ele></trkpt>
<trkpt lat="-22.892620" lon="-47.039097"><ele>702.0</ele></trkpt>
<trkpt lat="-22.892598" lon="-47.039068"><ele>702.3</ele></trkpt>
<trkpt lat="-22.892577" lon="-47.039039"><ele>702.6</ele></trkpt>
<trkpt lat="-22.892556" lon="-47.039010"><ele>702.9</ele></trkpt>
<trkpt lat="-22.892534" lon="-47.038981"><ele>703.2</ele></trkpt>
<trkpt lat="-22.892513" lon="-47.038952"><ele>703.5</ele></trkpt>
<trkpt lat="-22.892491" lon="-47.038923"><ele>703.8</ele></trkpt>
<trkpt lat="-22.892470" lon="-47.038894"><ele>704.1</ele></trkpt>
<trkpt lat="-22.892448" lon="-47.038865"><ele>704.4</ele></trkpt>
<trkpt lat="-22.892427" lon="-47.038837"><ele>704.7</ele></trkpt>
<trkpt lat="-22.892405" lon="-47.038808"><ele>705.0</ele></trkpt>
<trkpt lat="-22.892384" lon="-47.038779"><ele>705.3</ele></trkpt>
<trkpt lat="-22.892362" lon="-47.038750"><ele>705.6</ele></trkpt>
<trkpt lat="-22.892340" lon="-47.038721"><ele>705.9</ele></trkpt>
<trkpt lat="-22.892319" lon="-47.038693"><ele>706.2</ele></trkpt>
<trkpt lat="-22.892297" lon="-47.038664"><ele>706.5</ele></trkpt>
<trkpt lat="-22.892275" lon="-47.038635"><ele>706.8</ele></trkpt>
<trkpt lat="-22.892254" lon="-47.038606"><ele>707.1</ele></trkpt>
<trkpt lat="-22.892232" lon="-47.038578"><ele>707.4</ele></trkpt>
<trkpt lat="-22.892210" lon="-47.038549"><ele>707.7</ele></trkpt>
<trkpt lat="-22.892176" lon="-47.038504"><ele>707.8</ele></trkpt>
<trkpt lat="-22.892141" lon="-47.038459"><ele>707.9</ele></trkpt>
<trkpt lat="-22.892107" lon="-47.038413"><ele>707.9</ele></trkpt>
<trkpt lat="-22.892072" lon="-47.038368"><ele>708.0</ele></trkpt>
<trkpt lat="-22.892038" lon="-47.038323"><ele>708.0</ele></trkpt>
<trkpt lat="-22.892003" lon="-47.038278"><ele>708.1</ele></trkpt>
<trkpt lat="-22.891968" lon="-47.038233"><ele>708.2</ele></trkpt>
<trkpt lat="-22.891934" lon="-47.038188"><ele>708.2</ele></trkpt>
<trkpt lat="-22.891899" lon="-47.038143"><ele>708.3</ele></trkpt>
<trkpt lat="-22.891865" lon="-47.038098"><ele>708.3</ele></trkpt>
<trkpt lat="-22.891830" lon="-47.038053"><ele>708.4</ele></trkpt>
<trkpt lat="-22.891795" lon="-47.038008"><ele>708.5</ele></trkpt>
<trkpt lat="-22.891761" lon="-47.037963"><ele>708.5</ele></trkpt>
<trkpt lat="-22.891726" lon="-47.037918"><ele>708.6</ele></trkpt>
<trkpt lat="-22.891691" lon="-47.037873"><ele>708.6</ele></trkpt>
<trkpt lat="-22.891656" lon="-47.037828"><ele>708.7</ele></trkpt>
<trkpt lat="-22.891622" lon="-47.037783"><ele>708.8</ele></trkpt>
<trkpt lat="-22.891587" lon="-47.037738"><ele>708.8</ele></trkpt>
<trkpt lat="-22.891552" lon="-47.037693"><ele>708.9</ele></trkpt>
<trkpt lat="-22.891517" lon="-47.037648"><ele>708.9</ele></trkpt>
<trkpt lat="-22.891483" lon="-47.037603"><ele>709.0</ele></trkpt>
<trkpt lat="-22.891448" lon="-47.037558"><ele>709.1</ele></trkpt>
<trkpt lat="-22.891413" lon="-47.037513"><ele>709.1</ele></trkpt>
<trkpt lat="-22.891378" lon="-47.037468"><ele>709.2</ele></trkpt>
<trkpt lat="-22.891344" lon="-47.037423"><ele>709.2</ele></trkpt>
<trkpt lat="-22.891309" lon="-47.037378"><ele>709.3</ele></trkpt>
<trkpt lat="-22.891274" lon="-47.037333"><ele>709.4</ele></trkpt>
<trkpt lat="-22.891240" lon="-47.037288"><ele>709.4</ele></trkpt>
<trkpt lat="-22.891205" lon="-47.037243"><ele>709.5</ele></trkpt>
<trkpt lat="-22.891170" lon="-47.037198"><ele>709.5</ele></trkpt>
<trkpt lat="-22.891136" lon="-47.037153"><ele>709.6</ele></trkpt>
<trkpt lat="-22.891101" lon="-47.037108"><ele>709.7</ele></trkpt>
<trkpt lat="-22.891066" lon="-47.037063"><ele>709.7</ele></trkpt>
<trkpt lat="-22.891032" lon="-47.037018"><ele>709.8</ele></trkpt>
<trkpt lat="-22.890997" lon="-47.036973"><ele>709.8</ele></trkpt>
<trkpt lat="-22.890963" lon="-47.036928"><ele>709.9</ele></trkpt>
<trkpt lat="-22.890928" lon="-47.036883"><ele>710.0</ele></trkpt>
<trkpt lat="-22.890893" lon="-47.036838"><ele>710.0</ele></trkpt>
<trkpt lat="-22.890859" lon="-47.036792"><ele>710.1</ele></trkpt>
<trkpt lat="-22.890825" lon="-47.036747"><ele>710.1</ele></trkpt>
<trkpt lat="-22.890790" lon="-47.036702"><ele>710.2</ele></trkpt>
<trkpt lat="-22.890756" lon="-47.036657"><ele>710.3</ele></trkpt>
<trkpt lat="-22.890721" lon="-47.036611"><ele>710.3</ele></trkpt>
<trkpt lat="-22.890687" lon="-47.036566"><ele>710.4</ele></trkpt>
<trkpt lat="-22.890653" lon="-47.036521"><ele>710.4</ele></trkpt>
<trkpt lat="-22.890619" lon="-47.036475"><ele>710.5</ele></trkpt>
<trkpt lat="-22.890584" lon="-47.036430"><ele>710.6</ele></trkpt>
<trkpt lat="-22.890550" lon="-47.036384"><ele>710.6</ele></trkpt>
<trkpt lat="-22.890516" lon="-47.036339"><ele>710.7</ele></trkpt>
<trkpt lat="-22.890482" lon="-47.036293"><ele>710.7</ele></trkpt>
<trkpt lat="-22.890448" lon="-47.036248"><ele>710.8</ele></trkpt>
<trkpt lat="-22.890414" lon="-47.036202"><ele>710.9</ele></trkpt>
<trkpt lat="-22.890380" lon="-47.036156"><ele>710.9</ele></trkpt>
<trkpt lat="-22.890346" lon="-47.036111"><ele>711.0</ele></trkpt>
<trkpt lat="-22.890313" lon="-47.036065"><ele>711.0</ele></trkpt>
<trkpt lat="-22.890279" lon="-47.036019"><ele>711.1</ele></trkpt>
<trkpt lat="-22.890245" lon="-47.035973"><ele>711.2</ele></trkpt>
<trkpt lat="-22.890212" lon="-47.035927"><ele>711.2</ele></trkpt>
<trkpt lat="-22.890178" lon="-47.035881"><ele>711.3</ele></trkpt>
<trkpt lat="-22.890144" lon="-47.035835"><ele>711.3</ele></trkpt>
<trkpt lat="-22.890111" lon="-47.035789"><ele>711.4</ele></trkpt>
<trkpt lat="-22.890078" lon="-47.035743"><ele>711.5</ele></trkpt>
<trkpt lat="-22.890044" lon="-47.035697"><ele>711.5</ele></trkpt>
<trkpt lat="-22.890011" lon="-47.035651"><ele>711.6</ele></trkpt>
<trkpt lat="-22.889978" lon="-47.035604"><ele>711.6</ele></trkpt>
<trkpt lat="-22.889945" lon="-47.035558"><ele>711.7</ele></trkpt>
<trkpt lat="-22.889912" lon="-47.035512"><ele>711.8</ele></trkpt>
<trkpt lat="-22.889879" lon="-47.035465"><ele>711.8</ele></trkpt>
<trkpt lat="-22.889846" lon="-47.035418"><ele>711.9</ele></trkpt>
<trkpt lat="-22.889813" lon="-47.035372"><ele>711.9</ele></trkpt>
<trkpt lat="-22.889780" lon="-47.035325"><ele>712.0</ele></trkpt>
<trkpt lat="-22.889748" lon="-47.035278"><ele>712.1</ele></trkpt>
<trkpt lat="-22.889715" lon="-47.035232"><ele>712.1</ele></trkpt>
<trkpt lat="-22.889683" lon="-47.035185"><ele>712.2</ele></trkpt>
<trkpt lat="-22.889650" lon="-47.035138"><ele>712.2</ele></trkpt>
<trkpt lat="-22.889618" lon="-47.035091"><ele>712.3</ele></trkpt>
<trkpt lat="-22.889586" lon="-47.035044"><ele>712.4</ele></trkpt>
<trkpt lat="-22.889553" lon="-47.034997"><ele>712.4</ele></trkpt>
<trkpt lat="-22.889521" lon="-47.034950"><ele>712.5</ele></trkpt>
<trkpt lat="-22.889489" lon="-47.034902"><ele>712.5</ele></trkpt>
<trkpt lat="-22.889457" lon="-47.034855"><ele>712.6</ele></trkpt>
<trkpt lat="-22.889426" lon="-47.034808"><ele>712.7</ele></trkpt>
<trkpt lat="-22.889394" lon="-47.034760"><ele>712.7</ele></trkpt>
<trkpt lat="-22.889362" lon="-47.034712"><ele>712.8</ele></trkpt>
<trkpt lat="-22.889331" lon="-47.034665"><ele>712.8</ele></trkpt>
<trkpt lat="-22.889299" lon="-47.034617"><ele>712.9</ele></trkpt>
<trkpt lat="-22.889268" lon="-47.034569"><ele>713.0</ele></trkpt>
<trkpt lat="-22.889237" lon="-47.034522"><ele>713.0</ele></trkpt>
<trkpt lat="-22.889206" lon="-47.034474"><ele>713.1</ele></trkpt>
<trkpt lat="-22.889175" lon="-47.034426"><ele>713.1</ele></trkpt>
<trkpt lat="-22.889144" lon="-47.034378"><ele>713.2</ele></trkpt>
<trkpt lat="-22.889113" lon="-47.034329"><ele>713.3</ele></trkpt>
<trkpt lat="-22.889082" lon="-47.034281"><ele>713.3</ele></trkpt>
<trkpt lat="-22.889052" lon="-47.034233"><ele>713.4</ele></trkpt>
<trkpt lat="-22.889021" lon="-47.034184"><ele>713.4</ele></trkpt>
<trkpt lat="-22.888991" lon="-47.034136"><ele>713.5</ele></trkpt>
<trkpt lat="-22.888960" lon="-47.034088"><ele>713.6</ele></trkpt>
<trkpt lat="-22.888930" lon="-47.034039"><ele>713.6</ele></trkpt>
<trkpt lat="-22.888900" lon="-47.033990"><ele>713.7</ele></trkpt>
<trkpt lat="-22.888870" lon="-47.033941"><ele>713.7</ele></trkpt>
<trkpt lat="-22.888840" lon="-47.033893"><ele>713.8</ele></trkpt>
<trkpt lat="-22.888810" lon="-47.033844"><ele>713.9</ele></trkpt>
<trkpt lat="-22.888781" lon="-47.033795"><ele>713.9</ele></trkpt>
<trkpt lat="-22.888751" lon="-47.033746"><ele>714.0</ele></trkpt>
<trkpt lat="-22.888722" lon="-47.033696"><ele>714.0</ele></trkpt>
<trkpt lat="-22.888692" lon="-47.033647"><ele>714.1</ele></trkpt>
<trkpt lat="-22.888663" lon="-47.033598"><ele>714.2</ele></trkpt>
<trkpt lat="-22.888634" lon="-47.033548"><ele>714.2</ele></trkpt>
<trkpt lat="-22.888605" lon="-47.033499"><ele>714.3</ele></trkpt>
<trkpt lat="-22.888576" lon="-47.033449"><ele>714.3</ele></trkpt>
<trkpt lat="-22.888548" lon="-47.033400"><ele>714.4</ele></trkpt>
<trkpt lat="-22.888519" lon="-47.033350"><ele>714.5</ele></trkpt>
<trkpt lat="-22.888490" lon="-47.033300"><ele>714.5</ele></trkpt>
<trkpt lat="-22.888462" lon="-47.033250"><ele>714.6</ele></trkpt>
<trkpt lat="-22.888434" lon="-47.033200"><ele>714.6</ele></trkpt>
<trkpt lat="-22.888406" lon="-47.033150"><ele>714.7</ele></trkpt>
<trkpt lat="-22.888359" lon="-47.033067"><ele>714.1</ele></trkpt>
<trkpt lat="-22.888313" lon="-47.032983"><ele>713.5</ele></trkpt>
<trkpt lat="-22.888266" lon="-47.032899"><ele>712.9</ele></trkpt>
<trkpt lat="-22.888220" lon="-47.032816"><ele>712.3</ele></trkpt>
<trkpt lat="-22.888174" lon="-47.032731"><ele>711.7</ele></trkpt>
<trkpt lat="-22.888129" lon="-47.032647"><ele>711.1</ele></trkpt>
<trkpt lat="-22.888083" lon="-47.032563"><ele>710.5</ele></trkpt>
<trkpt lat="-22.888038" lon="-47.032479"><ele>709.9</ele></trkpt>
<trkpt lat="-22.887993" lon="-47.032394"><ele>709.3</ele></trkpt>
<trkpt lat="-22.887948" lon="-47.032309"><ele>708.7</ele></trkpt>
<trkpt lat="-22.887903" lon="-47.032225"><ele>708.1</ele></trkpt>
<trkpt lat="-22.887859" lon="-47.032140"><ele>707.5</ele></trkpt>
<trkpt lat="-22.887815" lon="-47.032055"><ele>706.9</ele></trkpt>
<trkpt lat="-22.887771" lon="-47.031969"><ele>706.3</ele></trkpt>
<trkpt lat="-22.887727" lon="-47.031884"><ele>705.7</ele></trkpt>
<trkpt lat="-22.887683" lon="-47.031799"><ele>705.1</ele></trkpt>
<trkpt lat="-22.887640" lon="-47.031713"><ele>704.5</ele></trkpt>
<trkpt lat="-22.887596" lon="-47.031628"><ele>703.9</ele></trkpt>
<trkpt lat="-22.887553" lon="-47.031542"><ele>703.3</ele></trkpt>
<trkpt lat="-22.887511" lon="-47.031456"><ele>702.7</ele></trkpt>
<trkpt lat="-22.887468" lon="-47.031370"><ele>702.1</ele></trkpt>
<trkpt lat="-22.887426" lon="-47.031284"><ele>701.5</ele></trkpt>
<trkpt lat="-22.887383" lon="-47.031198"><ele>700.9</ele></trkpt>
<trkpt lat="-22.887341" lon="-47.031111"><ele>700.3</ele></trkpt>
<trkpt lat="-22.887299" lon="-47.031025"><ele>699.7</ele></trkpt>
<trkpt lat="-22.887258" lon="-47.030938"><ele>699.1</ele></trkpt>
<trkpt lat="-22.887216" lon="-47.030852"><ele>698.5</ele></trkpt>
<trkpt lat="-22.887175" lon="-47.030765"><ele>697.9</ele></trkpt>
<trkpt lat="-22.887134" lon="-47.030678"><ele>697.3</ele></trkpt>
<trkpt lat="-22.887093" lon="-47.030591"><ele>696.7</ele></trkpt>
<trkpt lat="-22.887052" lon="-47.030504"><ele>696.1</ele></trkpt>
<trkpt lat="-22.887011" lon="-47.030417"><ele>695.5</ele></trkpt>
<trkpt lat="-22.886971" lon="-47.030330"><ele>694.9</ele></trkpt>
<trkpt lat="-22.886930" lon="-47.030243"><ele>694.3</ele></trkpt>
<trkpt lat="-22.886890" lon="-47.030155"><ele>693.7</ele></trkpt>
<trkpt lat="-22.886850" lon="-47.030068"><ele>693.1</ele></trkpt>
<trkpt lat="-22.886810" lon="-47.029980"><ele>692.5</ele></trkpt>
<trkpt lat="-22.886771" lon="-47.029893"><ele>691.9</ele></trkpt>
<trkpt lat="-22.886731" lon="-47.029805"><ele>691.3</ele></trkpt>
<trkpt lat="-22.886692" lon="-47.029717"><ele>690.7</ele></trkpt>
<trkpt lat="-22.886652" lon="-47.029629"><ele>690.1</ele></trkpt>
<trkpt lat="-22.886613" lon="-47.029541"><ele>689.5</ele></trkpt>
<trkpt lat="-22.886574" lon="-47.029453"><ele>688.9</ele></trkpt>
<trkpt lat="-22.886535" lon="-47.029365"><ele>688.3</ele></trkpt>
<trkpt lat="-22.886497" lon="-47.029277"><ele>687.7</ele></trkpt>
<trkpt lat="-22.886458" lon="-47.029189"><ele>687.1</ele></trkpt>
<trkpt lat="-22.886420" lon="-47.029101"><ele>686.5</ele></trkpt>
<trkpt lat="-22.886381" lon="-47.029012"><ele>685.9</ele></trkpt>
<trkpt lat="-22.886343" lon="-47.028924"><ele>685.3</ele></trkpt>
<trkpt lat="-22.886305" lon="-47.028836"><ele>684.7</ele></trkpt>
<trkpt lat="-22.886266" lon="-47.028747"><ele>684.1</ele></trkpt>
<trkpt lat="-22.886228" lon="-47.028659"><ele>683.5</ele></trkpt>
<trkpt lat="-22.886191" lon="-47.028570"><ele>682.9</ele></trkpt>
<trkpt lat="-22.886153" lon="-47.028482"><ele>682.3</ele></trkpt>
<trkpt lat="-22.886115" lon="-47.028393"><ele>681.7</ele></trkpt>
<trkpt lat="-22.886077" lon="-47.028305"><ele>681.1</ele></trkpt>
<trkpt lat="-22.886040" lon="-47.028216"><ele>680.5</ele></trkpt>
<trkpt lat="-22.886002" lon="-47.028127"><ele>679.9</ele></trkpt>
<trkpt lat="-22.885964" lon="-47.028039"><ele>679.3</ele></trkpt>
<trkpt lat="-22.885927" lon="-47.027950"><ele>678.7</ele></trkpt>
<trkpt lat="-22.885889" lon="-47.027861"><ele>678.1</ele></trkpt>
<trkpt lat="-22.885852" lon="-47.027772"><ele>677.5</ele></trkpt>
<trkpt lat="-22.885815" lon="-47.027683"><ele>676.9</ele></trkpt>
<trkpt lat="-22.885777" lon="-47.027595"><ele>676.3</ele></trkpt>
<trkpt lat="-22.885740" lon="-47.027506"><ele>675.7</ele></trkpt>
<trkpt lat="-22.885703" lon="-47.027417"><ele>675.1</ele></trkpt>
<trkpt lat="-22.885665" lon="-47.027328"><ele>674.5</ele></trkpt>
<trkpt lat="-22.885628" lon="-47.027239"><ele>673.9</ele></trkpt>
<trkpt lat="-22.885591" lon="-47.027150"><ele>673.3</ele></trkpt>
<trkpt lat="-22.885554" lon="-47.027062"><ele>672.7</ele></trkpt>
<trkpt lat="-22.885516" lon="-47.026973"><ele>672.1</ele></trkpt>
<trkpt lat="-22.885479" lon="-47.026884"><ele>671.5</ele></trkpt>
<trkpt lat="-22.885442" lon="-47.026795"><ele>670.9</ele></trkpt>
<trkpt lat="-22.885404" lon="-47.026706"><ele>670.3</ele></trkpt>
<trkpt lat="-22.885367" lon="-47.026618"><ele>669.7</ele></trkpt>
<trkpt lat="-22.885329" lon="-47.026529"><ele>669.1</ele></trkpt>
<trkpt lat="-22.885292" lon="-47.026440"><ele>668.5</ele></trkpt>
<trkpt lat="-22.885254" lon="-47.026351"><ele>667.9</ele></trkpt>
<trkpt lat="-22.885217" lon="-47.026263"><ele>667.3</ele></trkpt>
<trkpt lat="-22.885179" lon="-47.026174"><ele>666.7</ele></trkpt>
<trkpt lat="-22.885142" lon="-47.026085"><ele>666.1</ele></trkpt>
<trkpt lat="-22.885104" lon="-47.025997"><ele>665.5</ele></trkpt>
<trkpt lat="-22.885066" lon="-47.025908"><ele>664.9</ele></trkpt>
<trkpt lat="-22.885028" lon="-47.025820"><ele>664.3</ele></trkpt>
<trkpt lat="-22.884990" lon="-47.025731"><ele>663.7</ele></trkpt>
<trkpt lat="-22.884952" lon="-47.025643"><ele>663.1</ele></trkpt>
<trkpt lat="-22.884914" lon="-47.025554"><ele>662.5</ele></trkpt>
<trkpt lat="-22.884876" lon="-47.025466"><ele>661.9</ele></trkpt>
<trkpt lat="-22.884837" lon="-47.025378"><ele>661.3</ele></trkpt>
<trkpt lat="-22.884799" lon="-47.025289"><ele>660.7</ele></trkpt>
<trkpt lat="-22.884760" lon="-47.025201"><ele>660.1</ele></trkpt>
<trkpt lat="-22.884721" lon="-47.025113"><ele>659.5</ele></trkpt>
<trkpt lat="-22.884683" lon="-47.025025"><ele>658.9</ele></trkpt>
<trkpt lat="-22.884644" lon="-47.024937"><ele>658.3</ele></trkpt>
<trkpt lat="-22.884605" lon="-47.024849"><ele>657.7</ele></trkpt>
<trkpt lat="-22.884565" lon="-47.024761"><ele>657.1</ele></trkpt>
<trkpt lat="-22.884526" lon="-47.024673"><ele>656.5</ele></trkpt>
<trkpt lat="-22.884486" lon="-47.024586"><ele>655.9</ele></trkpt>
<trkpt lat="-22.884447" lon="-47.024498"><ele>655.3</ele></trkpt>
<trkpt lat="-22.884407" lon="-47.024410"><ele>654.7</ele></trkpt>
<trkpt lat="-22.884367" lon="-47.024323"><ele>654.1</ele></trkpt>
<trkpt lat="-22.884327" lon="-47.024235"><ele>653.5</ele></trkpt>
<trkpt lat="-22.884287" lon="-47.024148"><ele>652.9</ele></trkpt>
<trkpt lat="-22.884246" lon="-47.024061"><ele>652.3</ele></trkpt>
<trkpt lat="-22.884206" lon="-47.023974"><ele>651.7</ele></trkpt>
<trkpt lat="-22.884165" lon="-47.023887"><ele>651.1</ele></trkpt>
<trkpt lat="-22.884124" lon="-47.023800"><ele>650.5</ele></trkpt>
<trkpt lat="-22.884083" lon="-47.023713"><ele>649.9</ele></trkpt>
<trkpt lat="-22.884042" lon="-47.023626"><ele>649.3</ele></trkpt>
<trkpt lat="-22.884000" lon="-47.023539"><ele>648.7</ele></trkpt>
<trkpt lat="-22.883959" lon="-47.023453"><ele>648.1</ele></trkpt>
<trkpt lat="-22.883917" lon="-47.023366"><ele>647.5</ele></trkpt>
<trkpt lat="-22.883875" lon="-47.023280"><ele>646.9</ele></trkpt>
<trkpt lat="-22.883833" lon="-47.023194"><ele>646.3</ele></trkpt>
<trkpt lat="-22.883790" lon="-47.023108"><ele>645.7</ele></trkpt>
<trkpt lat="-22.883748" lon="-47.023022"><ele>645.1</ele></trkpt>
<trkpt lat="-22.883705" lon="-47.022936"><ele>644.5</ele></trkpt>
<trkpt lat="-22.883662" lon="-47.022850"><ele>643.9</ele></trkpt>
<trkpt lat="-22.883619" lon="-47.022764"><ele>643.3</ele></trkpt>
<trkpt lat="-22.883576" lon="-47.022679"><ele>642.7</ele></trkpt>
<trkpt lat="-22.883536" lon="-47.022602"><ele>642.4</ele></trkpt>
<trkpt lat="-22.883497" lon="-47.022525"><ele>642.2</ele></trkpt>
<trkpt lat="-22.883458" lon="-47.022448"><ele>641.9</ele></trkpt>
<trkpt lat="-22.883418" lon="-47.022372"><ele>641.6</ele></trkpt>
<trkpt lat="-22.883378" lon="-47.022295"><ele>641.4</ele></trkpt>
<trkpt lat="-22.883338" lon="-47.022219"><ele>641.1</ele></trkpt>
<trkpt lat="-22.883297" lon="-47.022142"><ele>640.8</ele></trkpt>
<trkpt lat="-22.883257" lon="-47.022066"><ele>640.5</ele></trkpt>
<trkpt lat="-22.883216" lon="-47.021990"><ele>640.3</ele></trkpt>
<trkpt lat="-22.883176" lon="-47.021914"><ele>640.0</ele></trkpt>
<trkpt lat="-22.883134" lon="-47.021839"><ele>639.7</ele></trkpt>
<trkpt lat="-22.883093" lon="-47.021763"><ele>639.5</ele></trkpt>
<trkpt lat="-22.883052" lon="-47.021687"><ele>639.2</ele></trkpt>
<trkpt lat="-22.883010" lon="-47.021612"><ele>638.9</ele></trkpt>
<trkpt lat="-22.882969" lon="-47.021536"><ele>638.7</ele></trkpt>
<trkpt lat="-22.882927" lon="-47.021461"><ele>638.4</ele></trkpt>
<trkpt lat="-22.882884" lon="-47.021386"><ele>638.1</ele></trkpt>
<trkpt lat="-22.882842" lon="-47.021311"><ele>637.8</ele></trkpt>
<trkpt lat="-22.882800" lon="-47.021236"><ele>637.6</ele></trkpt>
<trkpt lat="-22.882757" lon="-47.021162"><ele>637.3</ele></trkpt>
<trkpt lat="-22.882714" lon="-47.021087"><ele>637.0</ele></trkpt>
<trkpt lat="-22.882671" lon="-47.021012"><ele>636.8</ele></trkpt>
<trkpt lat="-22.882628" lon="-47.020938"><ele>636.5</ele></trkpt>
<trkpt lat="-22.882585" lon="-47.020864"><ele>636.2</ele></trkpt>
<trkpt lat="-22.882541" lon="-47.020790"><ele>636.0</ele></trkpt>
<trkpt lat="-22.882497" lon="-47.020716"><ele>635.7</ele></trkpt>
<trkpt lat="-22.882453" lon="-47.020642"><ele>635.4</ele></trkpt>
<trkpt lat="-22.882409" lon="-47.020568"><ele>635.1</ele></trkpt>
<trkpt lat="-22.882365" lon="-47.020494"><ele>634.9</ele></trkpt>
<trkpt lat="-22.882321" lon="-47.020421"><ele>634.6</ele></trkpt>
<trkpt lat="-22.882276" lon="-47.020347"><ele>634.3</ele></trkpt>
<trkpt lat="-22.882231" lon="-47.020274"><ele>634.1</ele></trkpt>
<trkpt lat="-22.882187" lon="-47.020201"><ele>633.8</ele></trkpt>
<trkpt lat="-22.882142" lon="-47.020128"><ele>633.5</ele></trkpt>
<trkpt lat="-22.882096" lon="-47.020055"><ele>633.3</ele></trkpt>
<trkpt lat="-22.882051" lon="-47.019982"><ele>633.0</ele></trkpt>
<trkpt lat="-22.882005" lon="-47.019909"><ele>632.7</ele></trkpt>
<trkpt lat="-22.881960" lon="-47.019836"><ele>632.4</ele></trkpt>
<trkpt lat="-22.881914" lon="-47.019764"><ele>632.2</ele></trkpt>
<trkpt lat="-22.881868" lon="-47.019691"><ele>631.9</ele></trkpt>
<trkpt lat="-22.881822" lon="-47.019619"><ele>631.6</ele></trkpt>
<trkpt lat="-22.881776" lon="-47.019547"><ele>631.4</ele></trkpt>
<trkpt lat="-22.881729" lon="-47.019475"><ele>631.1</ele></trkpt>
<trkpt lat="-22.881683" lon="-47.019403"><ele>630.8</ele></trkpt>
<trkpt lat="-22.881636" lon="-47.019331"><ele>630.6</ele></trkpt>
<trkpt lat="-22.881589" lon="-47.019259"><ele>630.3</ele></trkpt>
<trkpt lat="-22.881543" lon="-47.019187"><ele>630.0</ele></trkpt>
<trkpt lat="-22.881496" lon="-47.019115"><ele>629.7</ele></trkpt>
<trkpt lat="-22.881448" lon="-47.019044"><ele>629.5</ele></trkpt>
<trkpt lat="-22.881401" lon="-47.018972"><ele>629.2</ele></trkpt>
<trkpt lat="-22.881354" lon="-47.018901"><ele>628.9</ele></trkpt>
<trkpt lat="-22.881306" lon="-47.018830"><ele>628.7</ele></trkpt>
<trkpt lat="-22.881259" lon="-47.018759"><ele>628.4</ele></trkpt>
<trkpt lat="-22.881211" lon="-47.018687"><ele>628.1</ele></trkpt>
<trkpt lat="-22.881163" lon="-47.018616"><ele>627.9</ele></trkpt>
<trkpt lat="-22.881115" lon="-47.018545"><ele>627.6</ele></trkpt>
<trkpt lat="-22.881067" lon="-47.018475"><ele>627.3</ele></trkpt>
<trkpt lat="-22.881019" lon="-47.018404"><ele>627.0</ele></trkpt>
<trkpt lat="-22.880971" lon="-47.018333"><ele>626.8</ele></trkpt>
<trkpt lat="-22.880923" lon="-47.018262"><ele>626.5</ele></trkpt>
<trkpt lat="-22.880875" lon="-47.018192"><ele>626.2</ele></trkpt>
<trkpt lat="-22.880826" lon="-47.018121"><ele>626.0</ele></trkpt>
<trkpt lat="-22.880778" lon="-47.018051"><ele>625.7</ele></trkpt>
<trkpt lat="-22.880729" lon="-47.017980"><ele>625.4</ele></trkpt>
<trkpt lat="-22.880680" lon="-47.017910"><ele>625.2</ele></trkpt>
<trkpt lat="-22.880632" lon="-47.017839"><ele>624.9</ele></trkpt>
<trkpt lat="-22.880583" lon="-47.017769"><ele>624.6</ele></trkpt>
<trkpt lat="-22.880534" lon="-47.017699"><ele>624.3</ele></trkpt>
<trkpt lat="-22.880485" lon="-47.017629"><ele>624.1</ele></trkpt>
<trkpt lat="-22.880436" lon="-47.017559"><ele>623.8</ele></trkpt>
<trkpt lat="-22.880387" lon="-47.017489"><ele>623.5</ele></trkpt>
<trkpt lat="-22.880338" lon="-47.017418"><ele>623.3</ele></trkpt>
<trkpt lat="-22.880289" lon="-47.017348"><ele>623.0</ele></trkpt>
<trkpt lat="-22.880240" lon="-47.017278"><ele>622.7</ele></trkpt>
<trkpt lat="-22.880191" lon="-47.017208"><ele>622.5</ele></trkpt>
<trkpt lat="-22.880142" lon="-47.017138"><ele>622.2</ele></trkpt>
<trkpt lat="-22.880093" lon="-47.017068"><ele>621.9</ele></trkpt>
<trkpt lat="-22.880044" lon="-47.016998"><ele>621.6</ele></trkpt>
<trkpt lat="-22.879995" lon="-47.016929"><ele>621.4</ele></trkpt>
<trkpt lat="-22.879945" lon="-47.016859"><ele>621.1</ele></trkpt>
<trkpt lat="-22.879896" lon="-47.016789"><ele>620.8</ele></trkpt>
<trkpt lat="-22.879847" lon="-47.016719"><ele>620.6</ele></trkpt>
<trkpt lat="-22.879798" lon="-47.016649"><ele>620.3</ele></trkpt>
<trkpt lat="-22.879749" lon="-47.016579"><ele>620.0</ele></trkpt>
<trkpt lat="-22.879699" lon="-47.016509"><ele>619.8</ele></trkpt>
<trkpt lat="-22.879650" lon="-47.016439"><ele>619.5</ele></trkpt>
<trkpt lat="-22.879601" lon="-47.016369"><ele>619.2</ele></trkpt>
<trkpt lat="-22.879552" lon="-47.016299"><ele>618.9</ele></trkpt>
<trkpt lat="-22.879503" lon="-47.016229"><ele>618.7</ele></trkpt>
<trkpt lat="-22.879454" lon="-47.016159"><ele>618.4</ele></trkpt>
<trkpt lat="-22.879405" lon="-47.016089"><ele>618.1</ele></trkpt>
<trkpt lat="-22.879355" lon="-47.016019"><ele>617.9</ele></trkpt>
<trkpt lat="-22.879306" lon="-47.015949"><ele>617.6</ele></trkpt>
<trkpt lat="-22.879257" lon="-47.015879"><ele>617.3</ele></trkpt>
<trkpt lat="-22.879209" lon="-47.015809"><ele>617.1</ele></trkpt>
<trkpt lat="-22.879160" lon="-47.015739"><ele>616.8</ele></trkpt>
<trkpt lat="-22.879111" lon="-47.015669"><ele>616.5</ele></trkpt>
<trkpt lat="-22.879062" lon="-47.015598"><ele>616.2</ele></trkpt>
<trkpt lat="-22.879013" lon="-47.015528"><ele>616.0</ele></trkpt>
<trkpt lat="-22.878965" lon="-47.015458"><ele>615.7</ele></trkpt>
<trkpt lat="-22.878927" lon="-47.015403"><ele>615.7</ele></trkpt>
<trkpt lat="-22.878889" lon="-47.015348"><ele>615.7</ele></trkpt>
<trkpt lat="-22.878852" lon="-47.015293"><ele>615.7</ele></trkpt>
<trkpt lat="-22.878814" lon="-47.015238"><ele>615.7</ele></trkpt>
<trkpt lat="-22.878776" lon="-47.015183"><ele>615.7</ele></trkpt>
<trkpt lat="-22.878739" lon="-47.015128"><ele>615.7</ele></trkpt>
<trkpt lat="-22.878702" lon="-47.015073"><ele>615.7</ele></trkpt>
<trkpt lat="-22.878664" lon="-47.015018"><ele>615.7</ele></trkpt>
<trkpt lat="-22.878627" lon="-47.014963"><ele>615.7</ele></trkpt>
<trkpt lat="-22.878590" lon="-47.014908"><ele>615.7</ele></trkpt>
<trkpt lat="-22.878553" lon="-47.014852"><ele>615.7</ele></trkpt>
<trkpt lat="-22.878515" lon="-47.014797"><ele>615.7</ele></trkpt>
<trkpt lat="-22.878479" lon="-47.014742"><ele>615.7</ele></trkpt>
<trkpt lat="-22.878442" lon="-47.014686"><ele>615.7</ele></trkpt>
<trkpt lat="-22.878405" lon="-47.014631"><ele>615.7</ele></trkpt>
<trkpt lat="-22.878368" lon="-47.014575"><ele>615.7</ele></trkpt>
<trkpt lat="-22.878331" lon="-47.014519"><ele>615.7</ele></trkpt>
<trkpt lat="-22.878295" lon="-47.014464"><ele>615.7</ele></trkpt>
<trkpt lat="-22.878258" lon="-47.014408"><ele>615.7</ele></trkpt>
<trkpt lat="-22.878222" lon="-47.014352"><ele>615.7</ele></trkpt>
<trkpt lat="-22.878186" lon="-47.014296"><ele>615.7</ele></trkpt>
<trkpt lat="-22.878149" lon="-47.014240"><ele>615.7</ele></trkpt>
<trkpt lat="-22.878113" lon="-47.014184"><ele>615.7</ele></trkpt>
<trkpt lat="-22.878077" lon="-47.014128"><ele>615.7</ele></trkpt>
<trkpt lat="-22.878041" lon="-47.014072"><ele>615.7</ele></trkpt>
<trkpt lat="-22.878006" lon="-47.014015"><ele>615.7</ele></trkpt>
<trkpt lat="-22.877970" lon="-47.013959"><ele>615.7</ele></trkpt>
<trkpt lat="-22.877934" lon="-47.013903"><ele>615.7</ele></trkpt>
<trkpt lat="-22.877899" lon="-47.013846"><ele>615.7</ele></trkpt>
<trkpt lat="-22.877863" lon="-47.013789"><ele>615.7</ele></trkpt>
<trkpt lat="-22.877828" lon="-47.013733"><ele>615.7</ele></trkpt>
<trkpt lat="-22.877793" lon="-47.013676"><ele>615.7</ele></trkpt>
<trkpt lat="-22.877758" lon="-47.013619"><ele>615.7</ele></trkpt>
<trkpt lat="-22.877723" lon="-47.013562"><ele>615.7</ele></trkpt>
<trkpt lat="-22.877688" lon="-47.013505"><ele>615.7</ele></trkpt>
<trkpt lat="-22.877654" lon="-47.013448"><ele>615.7</ele></trkpt>
<trkpt lat="-22.877619" lon="-47.013391"><ele>615.7</ele></trkpt>
<trkpt lat="-22.877584" lon="-47.013334"><ele>615.7</ele></trkpt>
<trkpt lat="-22.877550" lon="-47.013276"><ele>615.7</ele></trkpt>
<trkpt lat="-22.877516" lon="-47.013219"><ele>615.7</ele></trkpt>
<trkpt lat="-22.877482" lon="-47.013161"><ele>615.7</ele></trkpt>
<trkpt lat="-22.877448" lon="-47.013104"><ele>615.7</ele></trkpt>
<trkpt lat="-22.877414" lon="-47.013046"><ele>615.7</ele></trkpt>
<trkpt lat="-22.877380" lon="-47.012988"><ele>615.7</ele></trkpt>
<trkpt lat="-22.877347" lon="-47.012930"><ele>615.7</ele></trkpt>
<trkpt lat="-22.877313" lon="-47.012872"><ele>615.7</ele></trkpt>
<trkpt lat="-22.877280" lon="-47.012814"><ele>615.7</ele></trkpt>
<trkpt lat="-22.877247" lon="-47.012756"><ele>615.7</ele></trkpt>
<trkpt lat="-22.877214" lon="-47.012698"><ele>615.7</ele></trkpt>
<trkpt lat="-22.877181" lon="-47.012640"><ele>615.7</ele></trkpt>
<trkpt lat="-22.877148" lon="-47.012581"><ele>615.7</ele></trkpt>
<trkpt lat="-22.877115" lon="-47.012523"><ele>615.7</ele></trkpt>
<trkpt lat="-22.877083" lon="-47.012464"><ele>615.7</ele></trkpt>
<trkpt lat="-22.877051" lon="-47.012406"><ele>615.7</ele></trkpt>
<trkpt lat="-22.877018" lon="-47.012347"><ele>615.7</ele></trkpt>
<trkpt lat="-22.876986" lon="-47.012288"><ele>615.7</ele></trkpt>
<trkpt lat="-22.876954" lon="-47.012229"><ele>615.7</ele></trkpt>
<trkpt lat="-22.876923" lon="-47.012170"><ele>615.7</ele></trkpt>
<trkpt lat="-22.876891" lon="-47.012111"><ele>615.7</ele></trkpt>
<trkpt lat="-22.876859" lon="-47.012052"><ele>615.7</ele></trkpt>
<trkpt lat="-22.876828" lon="-47.011993"><ele>615.7</ele></trkpt>
<trkpt lat="-22.876797" lon="-47.011933"><ele>615.7</ele></trkpt>
<trkpt lat="-22.876766" lon="-47.011874"><ele>615.7</ele></trkpt>
<trkpt lat="-22.876735" lon="-47.011814"><ele>615.7</ele></trkpt>
<trkpt lat="-22.876704" lon="-47.011755"><ele>615.7</ele></trkpt>
<trkpt lat="-22.876673" lon="-47.011695"><ele>615.7</ele></trkpt>
<trkpt lat="-22.876643" lon="-47.011635"><ele>615.7</ele></trkpt>
<trkpt lat="-22.876612" lon="-47.011575"><ele>615.7</ele></trkpt>
<trkpt lat="-22.876582" lon="-47.011515"><ele>615.7</ele></trkpt>
<trkpt lat="-22.876552" lon="-47.011455"><ele>615.7</ele></trkpt>
<trkpt lat="-22.876522" lon="-47.011395"><ele>615.7</ele></trkpt>
<trkpt lat="-22.876492" lon="-47.011335"><ele>615.7</ele></trkpt>
<trkpt lat="-22.876463" lon="-47.011274"><ele>615.7</ele></trkpt>
<trkpt lat="-22.876433" lon="-47.011214"><ele>615.7</ele></trkpt>
<trkpt lat="-22.876404" lon="-47.011154"><ele>615.7</ele></trkpt>
<trkpt lat="-22.876375" lon="-47.011093"><ele>615.7</ele></trkpt>
<trkpt lat="-22.876346" lon="-47.011032"><ele>615.7</ele></trkpt>
<trkpt lat="-22.876317" lon="-47.010972"><ele>615.7</ele></trkpt>
<trkpt lat="-22.876288" lon="-47.010911"><ele>615.7</ele></trkpt>
<trkpt lat="-22.876259" lon="-47.010850"><ele>615.7</ele></trkpt>
<trkpt lat="-22.876231" lon="-47.010789"><ele>615.7</ele></trkpt>
<trkpt lat="-22.876203" lon="-47.010728"><ele>615.7</ele></trkpt>
<trkpt lat="-22.876174" lon="-47.010667"><ele>615.7</ele></trkpt>
<trkpt lat="-22.876146" lon="-47.010606"><ele>615.7</ele></trkpt>
<trkpt lat="-22.876118" lon="-47.010544"><ele>615.7</ele></trkpt>
<trkpt lat="-22.876091" lon="-47.010483"><ele>615.7</ele></trkpt>
<trkpt lat="-22.876063" lon="-47.010422"><ele>615.7</ele></trkpt>
<trkpt lat="-22.876035" lon="-47.010360"><ele>615.7</ele></trkpt>
<trkpt lat="-22.876008" lon="-47.010299"><ele>615.7</ele></trkpt>
<trkpt lat="-22.875981" lon="-47.010237"><ele>615.7</ele></trkpt>
<trkpt lat="-22.875954" lon="-47.010175"><ele>615.7</ele></trkpt>
<trkpt lat="-22.875927" lon="-47.010113"><ele>615.7</ele></trkpt>
<trkpt lat="-22.875900" lon="-47.010052"><ele>615.7</ele></trkpt>
<trkpt lat="-22.875873" lon="-47.009990"><ele>615.7</ele></trkpt>
<trkpt lat="-22.875847" lon="-47.009928"><ele>615.7</ele></trkpt>
<trkpt lat="-22.875821" lon="-47.009866"><ele>615.7</ele></trkpt>
<trkpt lat="-22.875794" lon="-47.009804"><ele>615.7</ele></trkpt>
<trkpt lat="-22.875768" lon="-47.009741"><ele>615.7</ele></trkpt>
<trkpt lat="-22.875742" lon="-47.009679"><ele>615.7</ele></trkpt>
<trkpt lat="-22.875716" lon="-47.009617"><ele>615.7</ele></trkpt>
<trkpt lat="-22.875691" lon="-47.009555"><ele>615.7</ele></trkpt>
<trkpt lat="-22.875665" lon="-47.009492"><ele>615.7</ele></trkpt>
<trkpt lat="-22.875639" lon="-47.009430"><ele>615.7</ele></trkpt>
<trkpt lat="-22.875614" lon="-47.009367"><ele>615.7</ele></trkpt>
<trkpt lat="-22.875589" lon="-47.009305"><ele>615.7</ele></trkpt>
<trkpt lat="-22.875564" lon="-47.009242"><ele>615.7</ele></trkpt>
<trkpt lat="-22.875539" lon="-47.009179"><ele>615.7</ele></trkpt>
<trkpt lat="-22.875514" lon="-47.009116"><ele>615.7</ele></trkpt>
<trkpt lat="-22.875489" lon="-47.009054"><ele>615.7</ele></trkpt>
<trkpt lat="-22.875464" lon="-47.008991"><ele>615.7</ele></trkpt>
<trkpt lat="-22.875440" lon="-47.008928"><ele>615.7</ele></trkpt>
<trkpt lat="-22.875415" lon="-47.008865"><ele>615.7</ele></trkpt>
<trkpt lat="-22.875391" lon="-47.008802"><ele>615.7</ele></trkpt>
<trkpt lat="-22.875367" lon="-47.008739"><ele>615.7</ele></trkpt>
</trkseg></trk></gpx>